[{"OBJECT_NAME":"STARLINK-3833","OBJECT_ID":"2022-051AU","EPOCH":"2026-03-09T09:39:22.849056","MEAN_MOTION":15.08843368,"ECCENTRICITY":0.00014301,"INCLINATION":53.2173,"RA_OF_ASC_NODE":135.408,"ARG_OF_PERICENTER":105.2509,"MEAN_ANOMALY":254.8641,"EPHEMERIS_TYPE":0,"CLASSIFICATION_TYPE":"U","NORAD_CAT_ID":52578,"ELEMENT_SET_NO":999,"REV_AT_EPOCH":21133,"BSTAR":-0.0001078499,"MEAN_MOTION_DOT":-2.004e-5,"MEAN_MOTION_DDOT":0},{"OBJECT_NAME":"CZ-6A DEB","OBJECT_ID":"2024-140XA","EPOCH":"2026-03-09T13:38:46.141440","MEAN_MOTION":14.97207457,"ECCENTRICITY":0.0079782,"INCLINATION":88.8472,"RA_OF_ASC_NODE":268.9899,"ARG_OF_PERICENTER":170.4337,"MEAN_ANOMALY":189.8439,"EPHEMERIS_TYPE":0,"CLASSIFICATION_TYPE":"U","NORAD_CAT_ID":61385,"ELEMENT_SET_NO":999,"REV_AT_EPOCH":8131,"BSTAR":0.0034461,"MEAN_MOTION_DOT":0.00042743,"MEAN_MOTION_DDOT":0}]
